brand,name,address,latitude,longitude
3second,3 SECOND 1 KARAWACI SUPER MAL,Jl.Boulevard Diponegoro Lt. UG Supermal Karawaci,-6.22680211,106.6071833
3second,3 SECOND FS LAMPUNG,Jl. Raden Intan No. 140 ABC ,-5.42150352,105.2580668
3second,3 SECOND TUNJUNGAN PLAZA,TP 1 Lantai 2 Jl. Jenderal Basuki Rachmat No. 8-12 ,-7.26212351,112.7387542
3second,3 SECOND BENGKULU INDAH MALL,Bengkulu Indah Mall Lt Dasar Blok A no 7,-3.80312726,102.2645356
3second,3 SECOND 2 RUKO MALANG,Jl. Soekarno Hatta A3 Kav 2-3,-7.94935729,112.6168181
3second,3 SECOND 2 RUKO BALIKPAPAN,Jl. Jend Sudirman no 251. Markoni Balikpapan 76113,-1.2744509,116.8495723
3second,3 SECOND HARTONO MALL SOLO,Hartono Mall Lt. UG Blok D Showroom 3second Jl. Ir. Soekarno. Dusun II,-7.60067953,110.8144871
3second,3 SECOND ROYAL PLAZA,Royal Plaza Jl. A Yani No. 16 - 18 Surabaya. Lantai UG Block F3 No. 29 -03 Surabaya 60231,-7.30878915,112.7350246
3second,3 SECOND TANGCITY MALL,Jl. Jend. Sudirman No. 1 Cikokol,-6.1938406,106.634062
3second,3 SECOND FS PANGKAL PINANG,Jl. Kh. Abdurahman Siddik No. 5-7. Gabek Dua,-2.12690714,106.1137615
3second,3 SECOND FS SERANG,Jalan Jendral Ahmad Yani No. 71 Linkungan Asem Gede RT/02 RW/09,-6.11912083,106.1631348
3second,3 SECOND WTC BATANGHARI JAMBI,Mall WTC Batanghari Lt 1 Jl. Sultan Thaha No. 17 Lt 1 blok D26,-1.58868155,103.6159457
3second,3 SECOND RUKO MATARAM,Jl. Panca Usaha No. 29 ,-8.58958403,116.1261641
3second,3 SECOND FS MADIUN,Jln. H Agus salim No. 4,-7.63012491,111.5168015
3second,3 SECOND MALL OF SERANG,3 Second Mall of Serang Lt. 1 Jl. Akses Tol Serang Timur Link Kemang ,-6.11887436,106.1819228
3second,3 SECOND A YANI MAL PONTIANAK,Ayani Mega Mall Lt.1 Blok A1/56. Jl. Ahmad Yani No. 4,-0.05164515,109.3458943
3second,3 SECOND MANADO TOWN SQUARE,Manado Town Square 2 Lt. 2 FF B12 Jl. Piere Tendean Boulevard,1.47241782,124.8318535
3second,3 SECOND  GORONTALO MALL,Gorontalo Citimall Lt Dasar Jl. Sultan Botutihe No. 68,0.53771767,123.0621438
3second,3 SECOND MALL OLIMPIC GARDEN,Mal Olympic Garden Blok GF-12  Jl. Kawi No. 24,-7.97674889,112.6239282
3second,3 SECOND PLAZA KENDARI,3second Lippo Plaza Kendari LT. UG . Jl.  MT.  Haryono Wua wua,-3.99214189,122.5122213
3second,3 SECOND FS CILEGON,Jl. Ahmad Yani No. 13 Sukmajaya,-6.02221384,106.064489
3second,3 SECOND FS JEMBER,JL. Gajah  Mada  No 10 Jember,-8.16578848,113.7118314
3second,3 SECOND PLAZA PEKALONGAN, Jl. Nusantara No. 5  ,-6.89030934,109.6773182
3second,3 SECOND PARAGON MALL SMR,Jl. Pemuda No. 118 Paragon Mall Lt.3,-6.97897281,110.4161487
3second,3 SECOND MEDAN FAIR,Jl. Gatot Subroto No. 30 Plaza Medan Fair Lt. 1 Kav 19-20 ,3.59221846,98.66342739
3second,3 SECOND SUMMARECON MAL BEKASI,Jl. Ahmad Yani Blok-M Bekasi 3second Summarecon Mall Bekasi Lt. 2 ,-6.22592495,107.0010871
3second,3 SECOND LIPPO CIKARANG MALL,Mall Lippo Cikarang Lt. 1 No. 19 Jl. Mh. Thamrin Lippo Cikarang,-6.33433531,107.137026
3second,3 SECOND FS JAMBI,Jl. Sumantri Brojonegoro No.10. Selamat. Kec. Telanaipura. Kota Jambi. Jambi 36124,-1.60741278,103.5988268
3second,3 SECOND CIBINONG MAL,JL. Tegar Beriman No.1,-6.48417755,106.8423405
3second,3 SECOND FS BANYUWANGI,JL. Jendra Ahmad Yani No. 14,-8.21644923,114.3697595
3second,3 SECOND KEDATON MAL LAMPUNG,Mal Boemi Kedatan Lt. 1 Blok L No. 34. Jalan Teuku Umar,-5.38220317,105.2597516
3second,3 SECOND FS BANJARBARU,"Jl. A. Yani No.35, Loktabat Utara, Kec. Banjarbaru Utara, Kota Banjar Baru, Kalimantan Selatan 70714",-3.44145088,114.82779895
3second,3 SECOND FS SUKABUMI,Jl. R. E. Martadinata No.25 Gunungparang,-6.92011304,106.9301903
3second,3 SECOND MALANG TOWN SQUARE,JL. Veteran No. 2 Malang lt 4 unit 28 dan 29 Penanggungan ,-7.95674483,112.6187427
3second,3 SECOND FS PALU,Jl. Emisaelan No. 56 RT 01 RW 01  Palu,-0.911806,119.8759782
3second,3 SECOND KUPANG MALL,Lippo Plaza Kupang Mall. JL. Veteran,-10.15871858,123.611369
3second,3 SECOND BIG MALL SAMARINDA,JL. P. Untung Suropati No.8 . Bigmall Lt UG unit 80-81,-0.52608756,117.1161433
3second,3 SECOND FS GARUT,Jln.ahmad yani no 27,-7.21553091,107.90235408
3second,3 SECOND SUPERBLOCK BALIKPAPAN,Jl. Jend. Sudirman No. 71. LT.UG no 22-23 Balikpapan Superblock,-1.27330204,116.8589883
3second,3 SECOND DUTA MAL BANJARMASIN,Duta Mall LT.02 Block B No.09 . Jl. A. Yani Km 2,-3.32285964,114.6033077
3second,3 SECOND FS PALANGKARAYA,"Jalan diponegoro No 20A, langkai, pahandut, kota palangka raya,kalimantan tengah",-2.21492258,113.92519995
3second,3 SECOND RITA MAL PURWOKERTO,JL. Jend. Soedirman No. 296,-7.42551044,109.2303911
3second,3 SECOND EPICENTRUM MALL MATARAM,JL. Sriwijaya No.333 PUNIA UNIT GF #60,-8.59336361,116.1046316
3second,3 SECOND SOLO SQUARE,sh.3second Lt.1 solo square jln.slamet riyadi no.451 - 455,-7.56044627,110.7888079
3second,3 SECOND FS PURWAKARTA,Jl. Jendral Sudirman No. 70,-6.54758444,107.443748
3second,3 SECOND FS KEDIRI,JL. Pattimura No. 146,-7.82198203,112.0177549
3second,3 SECOND FS TASIKMALAYA,"Jl. Hz. Mustofa No. 170 Cihideung, Tasikmalaya",-7.32974911,108.2196346
3second,3 SECOND SKA MALL PEKANBARU,Jl. Soekarno-Hatta No. 24,0.49964928,101.418536
3second,3 SECOND SUNRISE MALL MOJOKERTO,Sunrise Mall LT. G Blok GF/30. JL. Benteng Pancasila No. 9 ,-7.47160333,112.4434966
3second,3 SECOND FS SALATIGA,JL. Diponegoro No.68,-7.31886031,110.4973583
3second,3 SECOND FS PADANG,JL. Damar No. 69,-0.94387654,100.3544711
3second,3 SECOND LIPPO PLAZA JEMBER,Mall Lippo Plaza Jember (TOKO 3SECOND) Jl. Gajah Mada No. 106,-8.17369448,113.6878872
3second,3 SECOND FS CENDRAWASIH,JL. Cendrawasih No.2,-7.74673281,110.4013871
3second,3 SECOND FS KARAWANG,JL. Kertabumi No. 67a,-6.30205686,107.2925849
3second,3 SECOND ARTOS MAGELANG,JL. Mayjen Bambang Soegeng No. 1,-7.5044267,110.2241663
3second,3 SECOND RUKO GOWA MAKASSAR,JL. Sultan Hasanuddin No. 179 ,-5.19100216,119.4424507
3second,3 SECOND FS PENGAYOMAN MKS,JL. Pengayoman Komp. Edelweis Blok A5 (samping hotel Grand Imawan) No. 9,-5.15893049,119.4436972
3second,3 SECOND FS MEDAN,JL. Dr. Mansyur No. 134a,3.56765642,98.64654814
3second,3 SECOND FS PEKANBARU,JL. Seobrantas No. 32-33 Panam,0.46455476,101.3930528
3second,3 SECOND FS KENDARI,Jl. Sao Sao No. 183 A-B,-3.98390239,122.514259
3second,3 SECOND BG JUNCTION SBY,BG Junction Mall. LT.UG C- 49 JL. Bubutan No.1-7,-7.25567321,112.7336801
3second,3 SECOND FS SUBANG,JL. Otto Iskandardinata No. 75,-6.56394435,107.7663091
3second,3 SECOND PLAZA ASIA TASIK,Plaza  Asia Tasik lantai GF No.  59 JL. kHz Mustofa Tasikmalaya,-7.34115923,108.2177196
3second,3 SECOND SCP SAMARINDA,JL. Pulau Irian No. 1,-0.50332323,117.1554076
3second,3 SECOND FS RIAU BANDUNG,JL. Re Martadinata No. 61,-6.90593012,107.6162962
3second,3 SECOND FS CIMAHI  ,JL. Gandawijaya No. 39,-6.87467583,107.541442
3second,3 SECOND FS CIANJUR  ,JL. Hos Cokroaminoto No. 157 Cianjur,-6.8176119,107.1433039
3second,3 SECOND FS BANJARMASIN BARU,Jl. Veteran No.42,-3.32010751,114.5993103
3second,3 SECOND FS MAJALENGKA,Jl. Kh. Abdul Halim No. 225 Majalengka ,-6.83429145,108.2261289
3second,3 SECOND FS CSB CIREBON,Jl. Dr. Cipto Mangunkusumo No. 47,-6.71759718,108.550871
3second,3 SECOND FS CILACAP,Jl. Letnan Jenderal S Parman No .39 A ,-7.72299751,109.0132764
3second,3 SECOND FS DEPOK, JL. Margonda Raya No. 270C,-6.3790287,106.8313919
3second,3 SECOND FS KEPATIHAN BANDUNG,Jl. Kepatihan No.10,-6.92336116,107.6049165
3second,3 SECOND FS PURWOKERTO,Jl. Overste Isdiman No. 16,-7.41998768,109.2441622
3second,3 SECOND FS PANDANARAN SMG,Jl. Pandanaran No. 43 Randusari,-6.98601795,110.4123403
3second,3 SECOND JATOS BANDUNG,Mall Jatos Blok B6 No. 7/8 Jl. Raya Jatinangor No. 150,-6.93464698,107.7718417
3second,3 SECOND FS SUMEDANG,Jl. Prabu Geusan Ulum No. 193,-6.84802709,107.9235674
3second,3 SECOND FS WRG JAMBU BOGOR,JL. Raya Pajajaran No. 258. Warung Jambu,-6.56937082,106.8087358
3second,3 SECOND FS SIDOARJO,Jl. Pahlawan No. 2,-7.44912862,112.7120363
3second,3 SECOND FS PARE PARE,Jl. Bau Massepe  No. 416  A -B,-4.01444656,119.6221908
3second,3 SECOND FS TEGAL,AR Hakim Square B-2,-6.87933653,109.1359694
3second,3 SECOND FS PERINTIS MAKASSAR,Jl. Perintis Kemerdekaan No. 97 D,-5.14120956,119.4874572
3second,3 SECOND FS LEMBANG,Jl. Raya Lembang No. 279,-6.8119505,107.6175135
3second,3 SECOND FS BANJAR,Jl. Letjen Suwarto No. 167 A-167B Hegasari.,-7.37375042,108.5414162
3second,3 SECOND FS MEDAN MARELAN,Jl. Marelan Raya Komplek Maryland distric 88 blok 88 AN-AP.,3.67764498,98.65643152
3second,3 SECOND FS SAMPIT,"Jl. MT. Haruono No.86 Ketapang Mentawan Baru, Sampit",-2.5409095,112.9443431
3second,3 SECOND FS LUBUKLINGGAU,"Jl. Yos Sudarso No.33, Taba Jemekeh, Kec. Lubuk Linggau Tim. I, Kota Lubuklinggau, Sumatera Selatan",-5.0227552,103.0058149
3second,3 SECOND FS SOLO,Jln  Slamet Riyadi St No.269,-7.56885922,110.8135252
3second,3 SECOND FS SUDIRMAN PEKANBARU,"JL Jend  Sudirman No 420 A-B, Kel Wonorejo , KecMarpoyan Damai Kota Pekanbaru",0.50765745,101.45025873
3second,3 SECOND FS BATU MALANG,"Jl Diponegoro no 84 , kec sisir kelurahan batu",-7.87369603,112.52977673
3second,3 SECOND FS PEKALONGAN,"Buaran, Kec. Pekalongan Sel., Kota Pekalongan, Jawa Tengah 51171",-6.913048,109.660077
3second,3 SECOND FS CILEDUG,"Jl hos cokroaminoto , RT 002 RW 06 no 1 A, Sudimara Jaya ,Ciledug Tangerang ",-6.22623976,106.71269175
3second,3 SECOND FS TUBAN,"Jl. Basuki Rachmat No.128 Sidomulyo, Doromukti  Kab. Tuban Jawa Timur",-6.89856831,112.05913033
3second,3 SECOND FS JOMBANG,"Jl. Abdurrahman Wahid (Gus Dur) No. 120, RT 003 RW 05, Kel. Candimulyo, Kec. Jombang, Kabupaten Jombang",-7.538175,112.241333
3second,3 SECOND ATRIUM JAKARTA,"Jalan Senen Raya no 135 RW 02, kecamatan Senen, Jakarta pusat, Daerah Khusus Ibukota Jakarta, Lantai 2",-6.17638343,106.84116643
3second,3 SECOND FS TAMAN SISWA YOGYA,"Jl.Taman Siswa No.109, Wirogunan , Kec.Mergangsan ,Kota Yogyakarta",-7.81155451,110.37697324
3second,3 SECOND FS KUDUS,Jl. Sunan Kudus No 74,-6.80709932,110.8383013
3second,3 SECOND FS KUNINGAN,"Jl. Siliwangi no. 188, Cigembang, Kuningan",-6.97284602,108.48579875
3second,3 SECOND FS SOREANG,"JL. RAYA SOREANG-BANJARAN NO.459 SOREANG, KEC.SOREANG, KAB.BANDUNG, JAWA BARAT",-7.02825651,107.52221923
3second,3 SECOND FS PRABUMULIH,"Jl Jend. Sudirman No 352 B, Muara Dua Kec. Prabumulih Tim, Kota Prabumulih, Sumatera Selatan 31114",-3.41933123,104.25081591
3second,3 SECOND FS PALEMBANG,"Jl. Radial No. 1274, 24 Ilir, Kec. Bukit Kecil, Kota Palembang, Sumatra Selatan 30134",-2.98180234,104.74904943
3second,3 SECOND PARIS VAN JAVA BANDUNG,"Jl. Sukajadi No.131-139, Cipedes, Kec. Sukajadi, Kota Bandung, Jawa Barat ",-6.88838061,107.5959439
3second,3 SECOND FS MER SURABAYA,"JL. DR. IR SOEKARNO NO.400, KEDUNG BARUK, KEC. RUNGKUT, KOTA SURABAYA, JAWA TIMUR 60298",7.3199695,112.78120573
3second,3 SECOND 1 LEVEL 21 BALI,"Jl. Teuku Umar No.1, Dauh Puri Klod, Kec. Denpasar Bar., Kota Denpasar, Bali 80113",-8.66956115,115.21451425
3second,3 SECOND FS BONTANG,"JL AHMAD YANI NO.20 API-API, KEC.BONTANG UTARA, KOTA BONTANG, KALTIM 75311",0.13154315,117.48657412
3second,3 SECOND FS SUMBAWA,"Jl.Hasanudin No. 57 Bugis, Kec. sumbawa, Kab. Sumbawa",-8.49599055,117.42076954
3second,3 SECOND BANDUNG PUSAT,Jln. Cimincrang No 9B  ,-6.93798504,107.70650453
3second,3 SECOND FS MOJOKERTO,"Jl. Mojopahit No.339, Mergelo, Kranggan, Kec. Prajurit Kulon, Kota Mojokerto, Jawa Timur 61321",-7.47726047,112.43214995
3second,3 SECOND FS GORONTALO,Jl. Prof. Dr. H.B. Jassin,0.55627124,123.04960558
3second,3 SECOND FS KATAPANG,"Jl. R. Suprapto No.93, Sampit, Kec. Delta Pawan, Kabupaten Ketapang, Kalimantan Barat 78811",-1.83316022,109.96619241
3second,3 SECOND FS TULUNGAGUNG,"Jl. Ahmad Yani Timur, Tamanan, Kampungdalem, Kec. Tulungagung, Kabupaten Tulungagung, Jawa Timur",-8.06614,111.902069
